[
  {
    "OBJECT_NAME": "STARLINK-5855",
    "OBJECT_ID": "23037D",
    "EPOCH": "2025-11-11T08:00:03.000384",
    "MEAN_MOTION": 15.99901475,
    "ECCENTRICITY": 0.0005157,
    "INCLINATION": 69.9581,
    "RA_OF_ASC_NODE": 148.457,
    "ARG_OF_PERICENTER": 241.0401,
    "MEAN_ANOMALY": 144.776,
    "EPHEMERIS_TYPE": 0,
    "CLASSIFICATION_TYPE": "U",
    "NORAD_CAT_ID": 55917,
    "ELEMENT_SET_NO": 999,
    "REV_AT_EPOCH": 592,
    "BSTAR": 0.0019514,
    "MEAN_MOTION_DOT": 0.00988266,
    "MEAN_MOTION_DDOT": 0.00048179,
    "TLE_LINE1": "1 55917U 23037D   25315.33336806  .00988266  48179-3  19514-2 0  9993",
    "TLE_LINE2": "2 55917  69.9581 148.4570 0005157 241.0401 144.7760 15.99901475  5921",
    "COMMENT": "Grouped by shell and plane from TLE"
  },
  {
    "OBJECT_NAME": "STARLINK-33667",
    "OBJECT_ID": "25070Y",
    "EPOCH": "2025-11-11T21:21:36.006912",
    "MEAN_MOTION": 16.1300804,
    "ECCENTRICITY": 0.0018138,
    "INCLINATION": 42.9769,
    "RA_OF_ASC_NODE": 141.5222,
    "ARG_OF_PERICENTER": 292.4333,
    "MEAN_ANOMALY": 67.4629,
    "EPHEMERIS_TYPE": 0,
    "CLASSIFICATION_TYPE": "U",
    "NORAD_CAT_ID": 63482,
    "ELEMENT_SET_NO": 999,
    "REV_AT_EPOCH": 3568,
    "BSTAR": 0.001356,
    "MEAN_MOTION_DOT": 0.01627177,
    "MEAN_MOTION_DDOT": 0.0020633,
    "TLE_LINE1": "1 63482U 25070Y   25315.89000008  .01627177  20633-2  13560-2 0  9992",
    "TLE_LINE2": "2 63482  42.9769 141.5222 0018138 292.4333  67.4629 16.13008040 35685",
    "COMMENT": "Grouped by shell and plane from TLE"
  }
]